STARLINK-2044           
1 47660U 21012AS  24210.84535881  .00002293  00000+0  17277-3 0  9992
2 47660  53.0556  65.6713 0001666  90.3398 269.7782 15.06396520192525
STARLINK-2051           
1 47661U 21012AT  24210.16799319 -.00001381  00000+0 -73849-4 0  9993
2 47661  53.0527 178.0808 0001400  81.5616 278.5531 15.06392633190898
STARLINK-2052           
1 47662U 21012AU  24210.21497558 -.00000475  00000+0 -13005-4 0  9991
2 47662  53.0548 177.8742 0001423 101.2503 258.8646 15.06394058190909
STARLINK-2053           
1 47663U 21012AV  24210.87572993 -.00001228  00000+0 -63616-4 0  9991
2 47663  53.0534  95.2280 0001398  91.0327 269.0822 15.06380821192114
STARLINK-2054           
1 47664U 21012AW  24210.21591746 -.00000743  00000+0 -31011-4 0  9992
2 47664  53.0550 177.8715 0001575  95.5921 264.5247 15.06390525190907
STARLINK-2056           
1 47665U 21012AX  24210.19611102 -.00000047  00000+0  15733-4 0  9998
2 47665  53.0541 173.0072 0001382  89.3098 270.8049 15.06390624190960
STARLINK-2057           
1 47666U 21012AY  24210.19245817  .00000039  00000+0  21531-4 0  9998
2 47666  53.0532 173.3300 0001528  91.7197 268.3967 15.06392324190967
STARLINK-2058           
1 47667U 21012AZ  24210.18089736  .00000282  00000+0  37805-4 0  9995
2 47667  53.0533 198.0268 0001442  89.2778 270.8377 15.06394256190619
STARLINK-2059           
1 47668U 21012BA  24210.22328342 -.00000762  00000+0 -32308-4 0  9998
2 47668  53.0531 177.8294 0001345  83.4778 276.6364 15.06392419190901
STARLINK-2062           
1 47670U 21012BC  24210.17168359  .00000018  00000+0  20109-4 0  9993
2 47670  53.0534 178.0643 0001228  85.9575 274.1554 15.06382477190895
STARLINK-2064           
1 47671U 21012BD  24210.21961104 -.00000278  00000+0  25028-6 0  9994
2 47671  53.0536 177.8545 0001205  86.4839 273.6288 15.06398403190906
STARLINK-2065           
1 47672U 21012BE  24210.19840683 -.00000584  00000+0 -20318-4 0  9996
2 47672  53.0526 167.9441 0001285  94.4112 265.7024 15.06391705191035
STARLINK-2066           
1 47673U 21012BF  24210.17537182  .00000692  00000+0  65334-4 0  9997
2 47673  53.0541 178.0482 0001301  98.4869 261.6267 15.06390215190895
STARLINK-2067           
1 47674U 21012BG  24210.18916148  .00000167  00000+0  30107-4 0  9999
2 47674  53.0533 177.9761 0001181  97.3637 262.7486 15.06396025190892
STARLINK-2078           
1 47675U 21012BH  24210.18274276 -.00000818  00000+0 -36063-4 0  9991
2 47675  53.0538 178.0185 0001480  83.3636 276.7521 15.06391225190898
STARLINK-2083           
1 47676U 21012BJ  24210.84159469 -.00001212  00000+0 -62479-4 0  9990
2 47676  53.0562  65.0563 0001629  92.0019 268.1156 15.06393871192539
STARLINK-2090           
1 47677U 21012BK  24210.23525093 -.00000467  00000+0 -12468-4 0  9998
2 47677  53.0536 197.7721 0001499  96.5107 263.6053 15.06389664190621
STARLINK-2095           
1 47679U 21012BM  24210.26472294 -.00001047  00000+0 -51443-4 0  9998
2 47679  53.0533 197.6510 0001301  89.2057 270.9081 15.06397422190634
STARLINK-2068           
1 47722U 21017A   24210.57300132 -.00006816  00000+0 -43933-3 0  9990
2 47722  53.0543 321.5076 0001231  79.3856 280.7272 15.06382330188515
STARLINK-2107           
1 47723U 21017B   24210.51446432 -.00001943  00000+0 -11159-3 0  9990
2 47723  53.0528 256.5284 0001292  75.2343 284.8789 15.06398747189417
STARLINK-2116           
1 47724U 21017C   24210.41862978 -.00002569  00000+0 -15365-3 0  9995
2 47724  53.0531 256.9585 0001333  85.9846 274.1295 15.06401128189403
