OBJECT_NAME,OBJECT_ID,EPOCH,MEAN_MOTION,ECCENTRICITY,INCLINATION,RA_OF_ASC_NODE,ARG_OF_PERICENTER,MEAN_ANOMALY,EPHEMERIS_TYPE,CLASSIFICATION_TYPE,NORAD_CAT_ID,ELEMENT_SET_NO,REV_AT_EPOCH,BSTAR,MEAN_MOTION_DOT,MEAN_MOTION_DDOT
STARLINK-2044,2021-012AS,2024-07-28T20:17:19.001184,15.06396520,.0001666,53.0556,65.6713,90.3398,269.7782,0,U,47660,999,19252,.17277E-3,.2293E-4,0
STARLINK-2051,2021-012AT,2024-07-28T04:01:54.611616,15.06392633,.00014,53.0527,178.0808,81.5616,278.5531,0,U,47661,999,19089,-.73849E-4,-.1381E-4,0
STARLINK-2052,2021-012AU,2024-07-28T05:09:33.890112,15.06394058,.0001423,53.0548,177.8742,101.2503,258.8646,0,U,47662,999,19090,-.13005E-4,-.475E-5,0
STARLINK-2053,2021-012AV,2024-07-28T21:01:03.065952,15.06380821,.0001398,53.0534,95.2280,91.0327,269.0822,0,U,47663,999,19211,-.63616E-4,-.1228E-4,0
STARLINK-2054,2021-012AW,2024-07-28T05:10:55.268544,15.06390525,.0001575,53.0550,177.8715,95.5921,264.5247,0,U,47664,999,19090,-.31011E-4,-.743E-5,0
STARLINK-2056,2021-012AX,2024-07-28T04:42:23.992128,15.06390624,.0001382,53.0541,173.0072,89.3098,270.8049,0,U,47665,999,19096,.15733E-4,-.47E-6,0
STARLINK-2057,2021-012AY,2024-07-28T04:37:08.385888,15.06392324,.0001528,53.0532,173.3300,91.7197,268.3967,0,U,47666,999,19096,.21531E-4,.39E-6,0
STARLINK-2058,2021-012AZ,2024-07-28T04:20:29.531904,15.06394256,.0001442,53.0533,198.0268,89.2778,270.8377,0,U,47667,999,19061,.37805E-4,.282E-5,0
STARLINK-2059,2021-012BA,2024-07-28T05:21:31.687488,15.06392419,.0001345,53.0531,177.8294,83.4778,276.6364,0,U,47668,999,19090,-.32308E-4,-.762E-5,0
STARLINK-2062,2021-012BC,2024-07-28T04:07:13.462176,15.06382477,.0001228,53.0534,178.0643,85.9575,274.1554,0,U,47670,999,19089,.20109E-4,.18E-6,0
STARLINK-2064,2021-012BD,2024-07-28T05:16:14.393856,15.06398403,.0001205,53.0536,177.8545,86.4839,273.6288,0,U,47671,999,19090,.25028E-6,-.278E-5,0
STARLINK-2065,2021-012BE,2024-07-28T04:45:42.350112,15.06391705,.0001285,53.0526,167.9441,94.4112,265.7024,0,U,47672,999,19103,-.20318E-4,-.584E-5,0
STARLINK-2066,2021-012BF,2024-07-28T04:12:32.125248,15.06390215,.0001301,53.0541,178.0482,98.4869,261.6267,0,U,47673,999,19089,.65334E-4,.692E-5,0
STARLINK-2067,2021-012BG,2024-07-28T04:32:23.551872,15.06396025,.0001181,53.0533,177.9761,97.3637,262.7486,0,U,47674,999,19089,.30107E-4,.167E-5,0
STARLINK-2078,2021-012BH,2024-07-28T04:23:08.974464,15.06391225,.000148,53.0538,178.0185,83.3636,276.7521,0,U,47675,999,19089,-.36063E-4,-.818E-5,0
STARLINK-2083,2021-012BJ,2024-07-28T20:11:53.781216,15.06393871,.0001629,53.0562,65.0563,92.0019,268.1156,0,U,47676,999,19253,-.62479E-4,-.1212E-4,0
STARLINK-2090,2021-012BK,2024-07-28T05:38:45.680352,15.06389664,.0001499,53.0536,197.7721,96.5107,263.6053,0,U,47677,999,19062,-.12468E-4,-.467E-5,0
STARLINK-2095,2021-012BM,2024-07-28T06:21:12.062016,15.06397422,.0001301,53.0533,197.6510,89.2057,270.9081,0,U,47679,999,19063,-.51443E-4,-.1047E-4,0
STARLINK-2068,2021-017A,2024-07-28T13:45:07.314048,15.06382330,.0001231,53.0543,321.5076,79.3856,280.7272,0,U,47722,999,18851,-.43933E-3,-.6816E-4,0
STARLINK-2107,2021-017B,2024-07-28T12:20:49.717248,15.06398747,.0001292,53.0528,256.5284,75.2343,284.8789,0,U,47723,999,18941,-.11159E-3,-.1943E-4,0
STARLINK-2116,2021-017C,2024-07-28T10:02:49.612992,15.06401128,.0001333,53.0531,256.9585,85.9846,274.1295,0,U,47724,999,18940,-.15365E-3,-.2569E-4,0
